{
  "links" : {
    "next" : "https://api.nasa.gov/neo/rest/v1/neo/browse?page=40&size=20&api_key=jqAGvNAwUIBu4fl9FSOjdm3V4F7hIglRzI6pdX9d",
    "prev" : "https://api.nasa.gov/neo/rest/v1/neo/browse?page=38&size=20&api_key=jqAGvNAwUIBu4fl9FSOjdm3V4F7hIglRzI6pdX9d",
    "self" : "https://api.nasa.gov/neo/rest/v1/neo/browse?page=39&size=20&api_key=jqAGvNAwUIBu4fl9FSOjdm3V4F7hIglRzI6pdX9d"
  },
  "page" : {
    "size" : 20,
    "total_elements" : 20750,
    "total_pages" : 1038,
    "number" : 39
  },
  "near_earth_objects" : [ {
    "links" : {
      "self" : "https://api.nasa.gov/neo/rest/v1/neo/3402612?api_key=jqAGvNAwUIBu4fl9FSOjdm3V4F7hIglRzI6pdX9d"
    },
    "neo_reference_id" : "3402612",
    "name" : "(2008 CK116)",
    "designation" : "2008 CK116",
    "nasa_jpl_url" : "http://ssd.jpl.nasa.gov/sbdb.cgi?sstr=3402612",
    "absolute_magnitude_h" : 23.4,
    "estimated_diameter" : {
      "kilometers" : {
        "estimated_diameter_min" : 0.0555334912,
        "estimated_diameter_max" : 0.1241766613
      },
      "meters" : {
        "estimated_diameter_min" : 55.5334911581,
        "estimated_diameter_max" : 124.1766612574
      },
      "miles" : {
        "estimated_diameter_min" : 0.0345069009,
        "estimated_diameter_max" : 0.0771597762
      },
      "feet" : {
        "estimated_diameter_min" : 182.1964991311,
        "estimated_diameter_max" : 407.4037573197
      }
    },
    "is_potentially_hazardous_asteroid" : false,
    "close_approach_data" : [ {
      "close_approach_date" : "2008-02-01",
      "epoch_date_close_approach" : 1201852800000,
      "relative_velocity" : {
        "kilometers_per_second" : "20.237591046",
        "kilometers_per_hour" : "72855.3277656428",
        "miles_per_hour" : "45269.467410824"
      },
      "miss_distance" : {
        "astronomical" : "0.037186904",
        "lunar" : "14.4657058716",
        "kilometers" : "5563082",
        "miles" : "3456738.75"
      },
      "orbiting_body" : "Earth"
    } ],
    "orbital_data" : {
      "orbit_id" : "9",
      "orbit_determination_date" : "2017-04-06 09:04:22",
      "first_observation_date" : "2008-02-10",
      "last_observation_date" : "2008-02-16",
      "data_arc_in_days" : 6,
      "observations_used" : 26,
      "orbit_uncertainty" : "9",
      "minimum_orbit_intersection" : ".0220013",
      "jupiter_tisserand_invariant" : "4.531",
      "epoch_osculation" : "2454509.5",
      "eccentricity" : ".5835165404341255",
      "semi_major_axis" : "1.399418882523055",
      "inclination" : "15.16738169644454",
      "ascending_node_longitude" : "314.7348967717335",
      "orbital_period" : "604.6722265058189",
      "perihelion_distance" : ".5828348175750122",
      "perihelion_argument" : "78.4970639859507",
      "aphelion_distance" : "2.216002947471098",
      "perihelion_time" : "2454445.871371560969",
      "mean_anomaly" : "37.88218680129958",
      "mean_motion" : ".5953638752027841",
      "equinox" : "J2000",
      "orbit_class" : {
        "orbit_class_type" : "APO",
        "orbit_class_range" : "a (semi-major axis) > 1.0 AU; q (perihelion) < 1.017 AU",
        "orbit_class_description" : "Near-Earth asteroid orbits which cross the Earth’s orbit similar to that of 1862 Apollo"
      }
    },
    "is_sentry_object" : false
  }, {
    "links" : {
      "self" : "https://api.nasa.gov/neo/rest/v1/neo/3402619?api_key=jqAGvNAwUIBu4fl9FSOjdm3V4F7hIglRzI6pdX9d"
    },
    "neo_reference_id" : "3402619",
    "name" : "(2008 CR116)",
    "designation" : "2008 CR116",
    "nasa_jpl_url" : "http://ssd.jpl.nasa.gov/sbdb.cgi?sstr=3402619",
    "absolute_magnitude_h" : 20.6,
    "estimated_diameter" : {
      "kilometers" : {
        "estimated_diameter_min" : 0.2016299194,
        "estimated_diameter_max" : 0.4508582062
      },
      "meters" : {
        "estimated_diameter_min" : 201.6299194428,
        "estimated_diameter_max" : 450.8582061718
      },
      "miles" : {
        "estimated_diameter_min" : 0.1252869847,
        "estimated_diameter_max" : 0.2801502144
      },
      "feet" : {
        "estimated_diameter_min" : 661.5155049046,
        "estimated_diameter_max" : 1479.1936371367
      }
    },
    "is_potentially_hazardous_asteroid" : false,
    "close_approach_data" : [ {
      "close_approach_date" : "1999-03-06",
      "epoch_date_close_approach" : 920707200000,
      "relative_velocity" : {
        "kilometers_per_second" : "18.3386670552",
        "kilometers_per_hour" : "66019.2013986833",
        "miles_per_hour" : "41021.7643357541"
      },
      "miss_distance" : {
        "astronomical" : "0.4902859295",
        "lunar" : "190.7212219238",
        "kilometers" : "73345736",
        "miles" : "45574924"
      },
      "orbiting_body" : "Earth"
    }, {
      "close_approach_date" : "2008-02-26",
      "epoch_date_close_approach" : 1204012800000,
      "relative_velocity" : {
        "kilometers_per_second" : "16.395779767",
        "kilometers_per_hour" : "59024.807161173",
        "miles_per_hour" : "36675.7197607855"
      },
      "miss_distance" : {
        "astronomical" : "0.1048092907",
        "lunar" : "40.7708129883",
        "kilometers" : "15679247",
        "miles" : "9742632"
      },
      "orbiting_body" : "Earth"
    }, {
      "close_approach_date" : "2017-02-13",
      "epoch_date_close_approach" : 1486972800000,
      "relative_velocity" : {
        "kilometers_per_second" : "22.2903358198",
        "kilometers_per_hour" : "80245.208951145",
        "miles_per_hour" : "49861.2521952267"
      },
      "miss_distance" : {
        "astronomical" : "0.4767389018",
        "lunar" : "185.4514312744",
        "kilometers" : "71319128",
        "miles" : "44315648"
      },
      "orbiting_body" : "Earth"
    } ],
    "orbital_data" : {
      "orbit_id" : "19",
      "orbit_determination_date" : "2017-04-06 09:04:21",
      "first_observation_date" : "2008-02-11",
      "last_observation_date" : "2008-03-01",
      "data_arc_in_days" : 19,
      "observations_used" : 237,
      "orbit_uncertainty" : "7",
      "minimum_orbit_intersection" : ".104884",
      "jupiter_tisserand_invariant" : "4.423",
      "epoch_osculation" : "2458600.5",
      "eccentricity" : ".2679366556006633",
      "semi_major_axis" : "1.4714474402212",
      "inclination" : "30.10836154517422",
      "ascending_node_longitude" : "334.9383856140708",
      "orbital_period" : "651.9519033676627",
      "perihelion_distance" : "1.077192734196175",
      "perihelion_argument" : "203.2679269295966",
      "aphelion_distance" : "1.865702146246225",
      "perihelion_time" : "2458456.338280274263",
      "mean_anomaly" : "79.60436779643504",
      "mean_motion" : ".5521879729784009",
      "equinox" : "J2000",
      "orbit_class" : {
        "orbit_class_type" : "AMO",
        "orbit_class_range" : "1.017 AU < q (perihelion) < 1.3 AU",
        "orbit_class_description" : "Near-Earth asteroid orbits similar to that of 1221 Amor"
      }
    },
    "is_sentry_object" : false
  }, {
    "links" : {
      "self" : "https://api.nasa.gov/neo/rest/v1/neo/3402636?api_key=jqAGvNAwUIBu4fl9FSOjdm3V4F7hIglRzI6pdX9d"
    },
    "neo_reference_id" : "3402636",
    "name" : "(2008 CW118)",
    "designation" : "2008 CW118",
    "nasa_jpl_url" : "http://ssd.jpl.nasa.gov/sbdb.cgi?sstr=3402636",
    "absolute_magnitude_h" : 25.0,
    "estimated_diameter" : {
      "kilometers" : {
        "estimated_diameter_min" : 0.02658,
        "estimated_diameter_max" : 0.0594346868
      },
      "meters" : {
        "estimated_diameter_min" : 26.58,
        "estimated_diameter_max" : 59.4346868419
      },
      "miles" : {
        "estimated_diameter_min" : 0.0165160412,
        "estimated_diameter_max" : 0.0369309908
      },
      "feet" : {
        "estimated_diameter_min" : 87.2047272,
        "estimated_diameter_max" : 194.9956979785
      }
    },
    "is_potentially_hazardous_asteroid" : false,
    "close_approach_data" : [ {
      "close_approach_date" : "2008-01-12",
      "epoch_date_close_approach" : 1200124800000,
      "relative_velocity" : {
        "kilometers_per_second" : "4.9722608012",
        "kilometers_per_hour" : "17900.1388841626",
        "miles_per_hour" : "11122.4501861065"
      },
      "miss_distance" : {
        "astronomical" : "0.0775655287",
        "lunar" : "30.172990799",
        "kilometers" : "11603638",
        "miles" : "7210166.5"
      },
      "orbiting_body" : "Earth"
    } ],
    "orbital_data" : {
      "orbit_id" : "6",
      "orbit_determination_date" : "2017-04-06 09:04:20",
      "first_observation_date" : "2008-02-10",
      "last_observation_date" : "2008-02-11",
      "data_arc_in_days" : 1,
      "observations_used" : 17,
      "orbit_uncertainty" : "9",
      "minimum_orbit_intersection" : ".0675378",
      "jupiter_tisserand_invariant" : "3.970",
      "epoch_osculation" : "2454507.5",
      "eccentricity" : ".4148703381633593",
      "semi_major_axis" : "1.792665261743621",
      "inclination" : "2.278038414882731",
      "ascending_node_longitude" : "127.7834109758598",
      "orbital_period" : "876.692378577526",
      "perihelion_distance" : "1.048941618390338",
      "perihelion_argument" : "334.221607397929",
      "aphelion_distance" : "2.536388905096904",
      "perihelion_time" : "2454471.061902758733",
      "mean_anomaly" : "14.96273416696085",
      "mean_motion" : ".4106343442657922",
      "equinox" : "J2000",
      "orbit_class" : {
        "orbit_class_type" : "AMO",
        "orbit_class_range" : "1.017 AU < q (perihelion) < 1.3 AU",
        "orbit_class_description" : "Near-Earth asteroid orbits similar to that of 1221 Amor"
      }
    },
    "is_sentry_object" : false
  } ]
}